[{"OBJECT_NAME":"SHIYAN-1 (SY-1)","OBJECT_ID":"2004-012A","EPOCH":"2026-03-09T17:40:34.066560","MEAN_MOTION":15.31043463,"ECCENTRICITY":0.00058726,"INCLINATION":97.8764,"RA_OF_ASC_NODE":140.5238,"ARG_OF_PERICENTER":23.6952,"MEAN_ANOMALY":336.4557,"EPHEMERIS_TYPE":0,"CLASSIFICATION_TYPE":"U","NORAD_CAT_ID":28220,"ELEMENT_SET_NO":999,"REV_AT_EPOCH":19586,"BSTAR":0.00054854449,"MEAN_MOTION_DOT":0.00016393,"MEAN_MOTION_DDOT":0},{"OBJECT_NAME":"STARLINK-2047","OBJECT_ID":"2021-005G","EPOCH":"2026-03-10T00:00:02.999808","MEAN_MOTION":15.23829448,"ECCENTRICITY":0.00019541,"INCLINATION":53.1308,"RA_OF_ASC_NODE":9.4335,"ARG_OF_PERICENTER":84.915,"MEAN_ANOMALY":56.4061,"EPHEMERIS_TYPE":0,"CLASSIFICATION_TYPE":"U","NORAD_CAT_ID":47355,"ELEMENT_SET_NO":999,"REV_AT_EPOCH":579,"BSTAR":0.032844419,"MEAN_MOTION_DOT":0.0086171,"MEAN_MOTION_DDOT":0}]
